STARLINK-2022           
1 47643U 21012Z   24269.70696430 -.00001178  00000+0 -60213-4 0  9992
2 47643  53.0552 270.8079 0001749 107.7929 252.3251 15.06400694200383
